[
    {
        "CCSDS_OMM_VERS": "3.0",
        "COMMENT": "GENERATED VIA SPACE-TRACK.ORG API",
        "CREATION_DATE": "2025-04-13T03:46:00",
        "ORIGINATOR": "18 SPCS",
        "OBJECT_NAME": "COSMOS 2557 (GLONASS)",
        "OBJECT_ID": "2022-075A",
        "CENTER_NAME": "EARTH",
        "REF_FRAME": "TEME",
        "TIME_SYSTEM": "UTC",
        "MEAN_ELEMENT_THEORY": "SGP4",
        "EPOCH": "2025-04-12T07:51:54.414432",
        "MEAN_MOTION": "2.13102089",
        "ECCENTRICITY": "0.00110650",
        "INCLINATION": "64.5382",
        "RA_OF_ASC_NODE": "329.6280",
        "ARG_OF_PERICENTER": "285.2339",
        "MEAN_ANOMALY": "74.7008",
        "EPHEMERIS_TYPE": "0",
        "CLASSIFICATION_TYPE": "U",
        "NORAD_CAT_ID": "52984",
        "ELEMENT_SET_NO": "999",
        "REV_AT_EPOCH": "2153",
        "BSTAR": "0.00000000000000",
        "MEAN_MOTION_DOT": "-0.00000050",
        "MEAN_MOTION_DDOT": "0.0000000000000",
        "SEMIMAJOR_AXIS": "25508.017",
        "PERIOD": "675.732",
        "APOAPSIS": "19158.107",
        "PERIAPSIS": "19101.658",
        "OBJECT_TYPE": "PAYLOAD",
        "RCS_SIZE": "LARGE",
        "COUNTRY_CODE": "CIS",
        "LAUNCH_DATE": "2022-07-07",
        "SITE": "PKMTR",
        "DECAY_DATE": null,
        "FILE": "4700252",
        "GP_ID": "285489141",
        "TLE_LINE0": "0 COSMOS 2557 (GLONASS)",
        "TLE_LINE1": "1 52984U 22075A   25102.32771313 -.00000050  00000-0  00000-0 0  9997",
        "TLE_LINE2": "2 52984  64.5382 329.6280 0011065 285.2339  74.7008  2.13102089 21536"
    }
]